CCSDS_OMM_VERS,COMMENT,CREATION_DATE,ORIGINATOR,OBJECT_NAME,OBJECT_ID,CENTER_NAME,REF_FRAME,TIME_SYSTEM,MEAN_ELEMENT_THEORY,EPOCH,MEAN_MOTION,ECCENTRICITY,INCLINATION,RA_OF_ASC_NODE,ARG_OF_PERICENTER,MEAN_ANOMALY,EPHEMERIS_TYPE,CLASSIFICATION_TYPE,NORAD_CAT_ID,ELEMENT_SET_NO,REV_AT_EPOCH,BSTAR,MEAN_MOTION_DOT,MEAN_MOTION_DDOT,SEMIMAJOR_AXIS,PERIOD,APOAPSIS,PERIAPSIS,OBJECT_TYPE,RCS_SIZE,COUNTRY_CODE,LAUNCH_DATE,SITE,DECAY_DATE,FILE,GP_ID,TLE_LINE0,TLE_LINE1,TLE_LINE2
2,GENERATED VIA SPACE-TRACK.ORG API,2004-05-29T18:17:45,18 SPCS,SKYNET 4D,1998-002A,EARTH,TEME,UTC,SGP4,2003-04-23T00:24:25.332767,1.00273917,0.002215,1.29,2.1948,291.3043,322.2265,0,U,25134,999,1939,0.0,1.34e-06,0,42164.161,1436.066,35879.419,35692.632,PAYLOAD,LARGE,UK,1998-01-10,AFETR,,7277,5206017,0 SKYNET 4D,1 25134U 98002A   03113.01695987 +.00000134 +00000-0 +00000-0 0  9995,2 25134 001.2900 002.1948 0022150 291.3043 322.2265 01.00273917019399
2,GENERATED VIA SPACE-TRACK.ORG API,2004-05-29T18:17:48,18 SPCS,SKYNET 4D,1998-002A,EARTH,TEME,UTC,SGP4,2003-04-23T23:31:58.146239,1.00278508,0.0002569,1.3067,3.5302,49.1719,190.6877,0,U,25134,999,1940,0.0,1.33e-06,0,42162.874,1436.0,35795.57,35773.907,PAYLOAD,LARGE,UK,1998-01-10,AFETR,,7278,5213120,0 SKYNET 4D,1 25134U 98002A   03113.98053410 +.00000133 +00000-0 +00000-0 0  9999,2 25134 001.3067 003.5302 0002569 049.1719 190.6877 01.00278508019403
2,GENERATED VIA SPACE-TRACK.ORG API,2004-05-29T18:19:24,18 SPCS,SKYNET 4D,1998-002A,EARTH,TEME,UTC,SGP4,2003-04-27T18:00:16.802207,1.0028034,0.0002394,1.3128,3.9308,46.1616,114.1945,0,U,25134,999,1944,0.0,1.42e-06,0,42162.36,1435.974,35794.319,35774.132,PAYLOAD,LARGE,UK,1998-01-10,AFETR,,7310,5248585,0 SKYNET 4D,1 25134U 98002A   03117.75019447 +.00000142 +00000-0 +00000-0 0  9990,2 25134 001.3128 003.9308 0002394 046.1616 114.1945 01.00280340019448
2,GENERATED VIA SPACE-TRACK.ORG API,2004-05-29T18:19:42,18 SPCS,SKYNET 4D,1998-002A,EARTH,TEME,UTC,SGP4,2003-04-30T00:16:09.666335,1.00282255,0.0002033,1.3097,3.9389,45.2817,211.3586,0,U,25134,999,1946,0.0,1.5e-06,0,42161.824,1435.946,35792.26,35775.117,PAYLOAD,LARGE,UK,1998-01-10,AFETR,,7316,5255685,0 SKYNET 4D,1 25134U 98002A   03120.01122299 +.00000150 +00000-0 +00000-0 0  9992,2 25134 001.3097 003.9389 0002033 045.2817 211.3586 01.00282255019465
2,GENERATED VIA SPACE-TRACK.ORG API,2004-08-17T16:12:03,18 SPCS,SKYNET 4D,1998-002A,EARTH,TEME,UTC,SGP4,2003-04-30T06:56:03.862175,1.00275352,0.0011693,1.3009,1.9009,331.2423,27.7256,0,U,25134,999,1946,0.0001,0.0,0,42163.758,1436.045,35834.926,35736.321,PAYLOAD,LARGE,UK,1998-01-10,AFETR,,36490,38166316,0 SKYNET 4D,1 25134U 98002A   03120.28893359  .00000000  00000-0  10000-3 0  9991,2 25134 001.3009 001.9009 0011693 331.2423 027.7256 01.00275352 19461
2,GENERATED VIA SPACE-TRACK.ORG API,2004-05-29T18:20:00,18 SPCS,SKYNET 4D,1998-002A,EARTH,TEME,UTC,SGP4,2003-04-30T17:49:38.828063,1.0028261,0.0002032,1.3097,3.9396,45.1424,115.6178,0,U,25134,999,1947,0.0,1.53e-06,0,42161.724,1435.941,35792.156,35775.022,PAYLOAD,LARGE,UK,1998-01-10,AFETR,,7322,5262658,0 SKYNET 4D,1 25134U 98002A   03120.74281051 +.00000153 +00000-0 +00000-0 0  9997,2 25134 001.3097 003.9396 0002032 045.1424 115.6178 01.00282610019474
2,GENERATED VIA SPACE-TRACK.ORG API,2004-05-29T18:20:18,18 SPCS,SKYNET 4D,1998-002A,EARTH,TEME,UTC,SGP4,2003-05-01T17:52:38.806176,1.00283107,0.0002032,1.3097,3.939,44.9736,117.5649,0,U,25134,999,1948,0.0,1.55e-06,0,42161.585,1435.934,35792.017,35774.883,PAYLOAD,LARGE,UK,1998-01-10,AFETR,,7328,5269608,0 SKYNET 4D,1 25134U 98002A   03121.74489359 +.00000155 +00000-0 +00000-0 0  9991,2 25134 001.3097 003.9390 0002032 044.9736 117.5649 01.00283107019488
2,GENERATED VIA SPACE-TRACK.ORG API,2004-05-29T18:20:39,18 SPCS,SKYNET 4D,1998-002A,EARTH,TEME,UTC,SGP4,2003-05-02T17:47:01.187807,1.0028361,0.0002031,1.3097,3.9409,44.8206,117.333,0,U,25134,999,1949,0.0,1.57e-06,0,42161.444,1435.927,35791.872,35774.746,PAYLOAD,LARGE,UK,1998-01-10,AFETR,,7335,5276480,0 SKYNET 4D,1 25134U 98002A   03122.74098597 +.00000157 +00000-0 +00000-0 0  9994,2 25134 001.3097 003.9409 0002031 044.8206 117.3330 01.00283610019494
2,GENERATED VIA SPACE-TRACK.ORG API,2004-05-29T18:21:06,18 SPCS,SKYNET 4D,1998-002A,EARTH,TEME,UTC,SGP4,2003-05-02T23:35:59.682623,1.00284108,0.0001814,1.3059,4.2012,53.0327,196.3642,0,U,25134,999,1949,0.0,1.58e-06,0,42161.304,1435.92,35790.817,35775.521,PAYLOAD,LARGE,UK,1998-01-10,AFETR,,7344,5303482,0 SKYNET 4D,1 25134U 98002A   03122.98332966 +.00000158 +00000-0 +00000-0 0  9992,2 25134 001.3059 004.2012 0001814 053.0327 196.3642 01.00284108019496
2,GENERATED VIA SPACE-TRACK.ORG API,2004-08-17T16:12:24,18 SPCS,SKYNET 4D,1998-002A,EARTH,TEME,UTC,SGP4,2003-05-06T06:41:06.008063,1.00281041,0.000384,1.3069,4.0417,57.5547,301.614,0,U,25134,999,1952,0.0001,0.0,0,42162.164,1435.964,35800.219,35767.839,PAYLOAD,LARGE,UK,1998-01-10,AFETR,,36497,38181671,0 SKYNET 4D,1 25134U 98002A   03126.27854176  .00000000  00000-0  10000-3 0  9990,2 25134 001.3069 004.0417 0003840 057.5547 301.6140 01.00281041 19529
2,GENERATED VIA SPACE-TRACK.ORG API,2004-05-29T18:21:09,18 SPCS,SKYNET 4D,1998-002A,EARTH,TEME,UTC,SGP4,2003-05-06T21:44:47.310432,1.00267199,0.0003958,1.304,4.4934,86.3167,138.7469,0,U,25134,999,1953,0.0,1.57e-06,0,42166.044,1436.162,35804.598,35771.22,PAYLOAD,LARGE,UK,1998-01-10,AFETR,,7345,5310440,0 SKYNET 4D,1 25134U 98002A   03126.90610313 +.00000157 +00000-0 +00000-0 0  9992,2 25134 001.3040 004.4934 0003958 086.3167 138.7469 01.00267199019536
2,GENERATED VIA SPACE-TRACK.ORG API,2004-05-29T18:21:15,18 SPCS,SKYNET 4D,1998-002A,EARTH,TEME,UTC,SGP4,2003-05-09T18:06:22.491072,1.00269174,0.001504,1.2948,4.8376,296.8583,236.2199,0,U,25134,999,1956,0.0,1.52e-06,0,42165.49,1436.134,35850.772,35723.938,PAYLOAD,LARGE,UK,1998-01-10,AFETR,,7347,5324703,0 SKYNET 4D,1 25134U 98002A   03129.75442698 +.00000152 +00000-0 +00000-0 0  9992,2 25134 001.2948 004.8376 0015040 296.8583 236.2199 01.00269174019563
2,GENERATED VIA SPACE-TRACK.ORG API,2004-05-29T18:21:18,18 SPCS,SKYNET 4D,1998-002A,EARTH,TEME,UTC,SGP4,2003-05-10T18:09:22.491647,1.00269436,0.0011615,1.2972,4.8788,299.7763,234.9515,0,U,25134,999,1957,0.0,1.52e-06,0,42165.417,1436.13,35836.257,35738.307,PAYLOAD,LARGE,UK,1998-01-10,AFETR,,7348,5331785,0 SKYNET 4D,1 25134U 98002A   03130.75651032 +.00000152 +00000-0 +00000-0 0  9998,2 25134 001.2972 004.8788 0011615 299.7763 234.9515 01.00269436019572
2,GENERATED VIA SPACE-TRACK.ORG API,2004-05-29T18:21:21,18 SPCS,SKYNET 4D,1998-002A,EARTH,TEME,UTC,SGP4,2003-05-11T18:12:22.485311,1.00269779,0.0009388,1.299,4.9123,302.9134,233.4852,0,U,25134,999,1958,0.0,1.51e-06,0,42165.321,1436.125,35826.771,35747.601,PAYLOAD,LARGE,UK,1998-01-10,AFETR,,7349,5338718,0 SKYNET 4D,1 25134U 98002A   03131.75859358 +.00000151 +00000-0 +00000-0 0  9999,2 25134 001.2990 004.9123 0009388 302.9134 233.4852 01.00269779019588
2,GENERATED VIA SPACE-TRACK.ORG API,2004-05-29T18:21:30,18 SPCS,SKYNET 4D,1998-002A,EARTH,TEME,UTC,SGP4,2003-05-14T18:21:22.486175,1.00270774,0.0002933,1.3026,4.9507,352.4271,189.0408,0,U,25134,999,1961,0.0,1.5e-06,0,42165.042,1436.111,35799.274,35774.54,PAYLOAD,LARGE,UK,1998-01-10,AFETR,,7352,5358938,0 SKYNET 4D,1 25134U 98002A   03134.76484359 +.00000150 +00000-0 +00000-0 0  9997,2 25134 001.3026 004.9507 0002933 352.4271 189.0408 01.00270774019610
2,GENERATED VIA SPACE-TRACK.ORG API,2004-05-29T18:21:33,18 SPCS,SKYNET 4D,1998-002A,EARTH,TEME,UTC,SGP4,2003-05-15T18:24:22.487615,1.00271165,0.0002682,1.3038,4.99,9.6307,173.5209,0,U,25134,999,1962,0.0,1.49e-06,0,42164.932,1436.105,35798.106,35775.489,PAYLOAD,LARGE,UK,1998-01-10,AFETR,,7353,5365778,0 SKYNET 4D,1 25134U 98002A   03135.76692694 +.00000149 +00000-0 +00000-0 0  9999,2 25134 001.3038 004.9900 0002682 009.6307 173.5209 01.00271165019625
2,GENERATED VIA SPACE-TRACK.ORG API,2004-05-29T18:21:42,18 SPCS,SKYNET 4D,1998-002A,EARTH,TEME,UTC,SGP4,2003-05-17T18:30:22.495679,1.00272042,0.0002702,1.3045,5.0174,26.7814,159.8055,0,U,25134,999,1964,0.0,1.45e-06,0,42164.686,1436.093,35797.944,35775.158,PAYLOAD,LARGE,UK,1998-01-10,AFETR,,7356,5379657,0 SKYNET 4D,1 25134U 98002A   03137.77109370 +.00000145 +00000-0 +00000-0 0  9992,2 25134 001.3045 005.0174 0002702 026.7814 159.8055 01.00272042019647
2,GENERATED VIA SPACE-TRACK.ORG API,2004-05-29T18:21:45,18 SPCS,SKYNET 4D,1998-002A,EARTH,TEME,UTC,SGP4,2003-05-18T18:33:22.497119,1.00272488,0.0002747,1.305,5.0616,32.0759,156.2021,0,U,25134,999,1965,0.0,1.43e-06,0,42164.561,1436.086,35798.009,35774.844,PAYLOAD,LARGE,UK,1998-01-10,AFETR,,7357,5386571,0 SKYNET 4D,1 25134U 98002A   03138.77317705 +.00000143 +00000-0 +00000-0 0  9994,2 25134 001.3050 005.0616 0002747 032.0759 156.2021 01.00272488019650
2,GENERATED VIA SPACE-TRACK.ORG API,2004-05-29T18:21:51,18 SPCS,SKYNET 4D,1998-002A,EARTH,TEME,UTC,SGP4,2003-05-19T21:45:14.569631,1.00272883,0.0002676,1.3047,5.2959,19.1368,217.9947,0,U,25134,999,1966,0.0,1.4e-06,0,42164.451,1436.081,35797.599,35775.032,PAYLOAD,LARGE,UK,1998-01-10,AFETR,,7359,5393621,0 SKYNET 4D,1 25134U 98002A   03139.90641863 +.00000140 +00000-0 +00000-0 0  9992,2 25134 001.3047 005.2959 0002676 019.1368 217.9947 01.00272883019663
2,GENERATED VIA SPACE-TRACK.ORG API,2004-05-29T18:21:57,18 SPCS,SKYNET 4D,1998-002A,EARTH,TEME,UTC,SGP4,2003-05-20T18:39:22.479264,1.00273319,0.0002671,1.3047,5.3202,23.9552,167.5456,0,U,25134,999,1967,0.0,1.39e-06,0,42164.328,1436.074,35797.455,35774.931,PAYLOAD,LARGE,UK,1998-01-10,AFETR,,7361,5400731,0 SKYNET 4D,1 25134U 98002A   03140.77734351 +.00000139 +00000-0 +00000-0 0  9992,2 25134 001.3047 005.3202 0002671 023.9552 167.5456 01.00273319019679
